{
  "type": "FeatureCollection",
  "features": [
    {
      "type": "Feature",
      "geometry": {
        "type": "Point",
        "coordinates": [
          -75.180435,
          39.965208
        ]
      },
      "properties": {
        "_id": 693632204,
        "formhub/uuid": "f5d4d4dd8d7e4c38afe658bc828c5266",
        "start": "2026-03-11T10:41:34.689-04:00",
        "end": "2026-03-11T10:57:37.429-04:00",
        "Your_Name": "Rocky",
        "Are_you_affiliated_with_Temple": "no",
        "Do_you_have_experience_with_GIS_or_maps": "none",
        "Have_you_used_KoboToolbox_before": "no",
        "Location": "39.965208 -75.180435 0 0",
        "__version__": "vtcqsEQYGVpgfJMUJ3E5Lh",
        "meta/instanceID": "uuid:6b03b2a8-fad6-41df-a3d7-aed32ae43ab6",
        "_xform_id_string": "aMbMFfnmPQF8whCvW7p8mB",
        "_uuid": "6b03b2a8-fad6-41df-a3d7-aed32ae43ab6",
        "meta/rootUuid": "uuid:6b03b2a8-fad6-41df-a3d7-aed32ae43ab6",
        "_attachments": [],
        "_status": "submitted_via_web",
        "_submission_time": "2026-03-11T14:57:37",
        "_tags": [],
        "_notes": [],
        "_validation_status": {},
        "_submitted_by": null
      }
    },
    {
      "type": "Feature",
      "geometry": {
        "type": "Point",
        "coordinates": [
          -75.155612,
          39.98283
        ]
      },
      "properties": {
        "_id": 693823538,
        "formhub/uuid": "f5d4d4dd8d7e4c38afe658bc828c5266",
        "start": "2026-03-11T15:28:35.477-04:00",
        "end": "2026-03-11T15:32:27.526-04:00",
        "Your_Name": "Felipe V",
        "Are_you_affiliated_with_Temple": "yes",
        "Are_you": "staff",
        "Do_you_have_experience_with_GIS_or_maps": "some_experience",
        "Have_you_used_KoboToolbox_before": "no",
        "What_tool_do_you_use_create_digital_forms": "Google forms",
        "Location": "39.98283 -75.155612 33.19625115232542 13.290284159306417",
        "__version__": "vtcqsEQYGVpgfJMUJ3E5Lh",
        "meta/instanceID": "uuid:9b243940-ab6c-4473-b1e1-e2025cbfabdd",
        "_xform_id_string": "aMbMFfnmPQF8whCvW7p8mB",
        "_uuid": "9b243940-ab6c-4473-b1e1-e2025cbfabdd",
        "meta/rootUuid": "uuid:9b243940-ab6c-4473-b1e1-e2025cbfabdd",
        "_attachments": [],
        "_status": "submitted_via_web",
        "_submission_time": "2026-03-11T19:32:27",
        "_tags": [],
        "_notes": [],
        "_validation_status": {},
        "_submitted_by": null
      }
    }
  ]
}